start=new Date('2022-05-17T00:00:00.000Z').valueOf();
sats=[{"FILE":"3448591","MEAN_ELEMENT_THEORY":"SGP4","EPHEMERIS_TYPE":"0","TLE_LINE1":"1 52274U 22041P   22136.58334491 -.00715612  00000-0 -80453-2 0  9996","APOAPSIS":"376.874","MEAN_MOTION_DDOT":"0.0000000000000","ARG_OF_PERICENTER":"29.9354","TIME_SYSTEM":"UTC","EPOCH":"2022-05-16T14:00:01.000224","MEAN_MOTION_DOT":"-0.00715612","ECCENTRICITY":"0.00020020","PERIOD":"92.059","SEMIMAJOR_AXIS":"6753.657","MEAN_MOTION":"15.64207034","CENTER_NAME":"EARTH","NORAD_CAT_ID":"52274","GP_ID":"203701085","LAUNCH_DATE":"2022-04-21","INCLINATION":"53.2173","MEAN_ANOMALY":"130.9419","DECAY_DATE":null,"CLASSIFICATION_TYPE":"U","ELEMENT_SET_NO":"999","BSTAR":"-0.00804530000000","COUNTRY_CODE":"US","OBJECT_TYPE":"PAYLOAD","PERIAPSIS":"374.170","REV_AT_EPOCH":"130","RA_OF_ASC_NODE":"251.8088","SITE":"AFETR","TLE_LINE2":"2 52274  53.2173 251.8088 0002002  29.9354 130.9419 15.64207034  1304","OBJECT_NAME":"STARLINK-3790","REF_FRAME":"TEME","OBJECT_ID":"2022-041P","RCS_SIZE":"LARGE"},{"MEAN_ANOMALY":"133.0913","DECAY_DATE":null,"CENTER_NAME":"EARTH","GP_ID":"203701275","LAUNCH_DATE":"2022-04-21","INCLINATION":"53.2173","NORAD_CAT_ID":"52275","RA_OF_ASC_NODE":"251.8032","SITE":"AFETR","TLE_LINE2":"2 52275  53.2173 251.8032 0002237  25.0206 133.0913 15.64188786  1302","REF_FRAME":"TEME","OBJECT_ID":"2022-041Q","RCS_SIZE":"LARGE","OBJECT_NAME":"STARLINK-3784","ELEMENT_SET_NO":"999","BSTAR":"-0.00805120000000","CLASSIFICATION_TYPE":"U","REV_AT_EPOCH":"130","PERIAPSIS":"374.064","COUNTRY_CODE":"US","OBJECT_TYPE":"PAYLOAD","FILE":"3448591","EPHEMERIS_TYPE":"0","MEAN_ELEMENT_THEORY":"SGP4","TLE_LINE1":"1 52275U 22041Q   22136.58334491 -.00715669  00000-0 -80512-2 0  9995","APOAPSIS":"377.086","MEAN_MOTION":"15.64188786","PERIOD":"92.060","ECCENTRICITY":"0.00022370","SEMIMAJOR_AXIS":"6753.710","MEAN_MOTION_DDOT":"0.0000000000000","ARG_OF_PERICENTER":"25.0206","MEAN_MOTION_DOT":"-0.00715669","EPOCH":"2022-05-16T14:00:01.000224","TIME_SYSTEM":"UTC"},{"TLE_LINE1":"1 52276U 22041R   22136.58334491 -.00715459  00000-0 -80406-2 0  9995","APOAPSIS":"376.829","EPHEMERIS_TYPE":"0","FILE":"3448591","MEAN_ELEMENT_THEORY":"SGP4","MEAN_MOTION":"15.64216112","PERIOD":"92.059","ECCENTRICITY":"0.00019740","SEMIMAJOR_AXIS":"6753.631","MEAN_MOTION_DOT":"-0.00715459","TIME_SYSTEM":"UTC","EPOCH":"2022-05-16T14:00:01.000224","ARG_OF_PERICENTER":"32.0247","MEAN_MOTION_DDOT":"0.0000000000000","MEAN_ANOMALY":"130.2350","DECAY_DATE":null,"GP_ID":"203700836","LAUNCH_DATE":"2022-04-21","INCLINATION":"53.2173","NORAD_CAT_ID":"52276","CENTER_NAME":"EARTH","REF_FRAME":"TEME","OBJECT_ID":"2022-041R","RCS_SIZE":"LARGE","OBJECT_NAME":"STARLINK-3778","RA_OF_ASC_NODE":"251.8117","TLE_LINE2":"2 52276  53.2173 251.8117 0001974  32.0247 130.2350 15.64216112  1306","SITE":"AFETR","REV_AT_EPOCH":"130","PERIAPSIS":"374.163","COUNTRY_CODE":"US","OBJECT_TYPE":"PAYLOAD","ELEMENT_SET_NO":"999","BSTAR":"-0.00804060000000","CLASSIFICATION_TYPE":"U"},{"FILE":"3448591","EPHEMERIS_TYPE":"0","MEAN_ELEMENT_THEORY":"SGP4","TLE_LINE1":"1 52277U 22041S   22136.58334491 -.00715639  00000-0 -80485-2 0  9993","APOAPSIS":"376.915","MEAN_MOTION_DDOT":"0.0000000000000","ARG_OF_PERICENTER":"29.4379","MEAN_MOTION_DOT":"-0.00715639","EPOCH":"2022-05-16T14:00:01.000224","TIME_SYSTEM":"UTC","MEAN_MOTION":"15.64197919","ECCENTRICITY":"0.00020240","PERIOD":"92.060","SEMIMAJOR_AXIS":"6753.684","CENTER_NAME":"EARTH","INCLINATION":"53.2173","GP_ID":"203701362","LAUNCH_DATE":"2022-04-21","NORAD_CAT_ID":"52277","MEAN_ANOMALY":"130.0569","DECAY_DATE":null,"BSTAR":"-0.00804850000000","ELEMENT_SET_NO":"999","CLASSIFICATION_TYPE":"U","REV_AT_EPOCH":"130","OBJECT_TYPE":"PAYLOAD","COUNTRY_CODE":"US","PERIAPSIS":"374.182","RA_OF_ASC_NODE":"251.8061","TLE_LINE2":"2 52277  53.2173 251.8061 0002024  29.4379 130.0569 15.64197919  1301","SITE":"AFETR","REF_FRAME":"TEME","OBJECT_ID":"2022-041S","RCS_SIZE":"LARGE","OBJECT_NAME":"STARLINK-3787"},{"RCS_SIZE":"LARGE","REF_FRAME":"TEME","OBJECT_ID":"2022-041T","OBJECT_NAME":"STARLINK-3780","TLE_LINE2":"2 52278  53.2173 251.8160 0001697  39.6283 123.3224 15.64220821  1306","SITE":"AFETR","RA_OF_ASC_NODE":"251.8160","REV_AT_EPOCH":"130","OBJECT_TYPE":"PAYLOAD","COUNTRY_CODE":"US","PERIAPSIS":"374.337","ELEMENT_SET_NO":"999","BSTAR":"-0.00804140000000","CLASSIFICATION_TYPE":"U","DECAY_DATE":null,"MEAN_ANOMALY":"123.3224","GP_ID":"203700742","LAUNCH_DATE":"2022-04-21","INCLINATION":"53.2173","NORAD_CAT_ID":"52278","CENTER_NAME":"EARTH","MEAN_MOTION":"15.64220821","SEMIMAJOR_AXIS":"6753.618","ECCENTRICITY":"0.00016970","PERIOD":"92.059","MEAN_MOTION_DOT":"-0.00715588","TIME_SYSTEM":"UTC","EPOCH":"2022-05-16T14:00:01.000224","ARG_OF_PERICENTER":"39.6283","MEAN_MOTION_DDOT":"0.0000000000000","APOAPSIS":"376.629","TLE_LINE1":"1 52278U 22041T   22136.58334491 -.00715588  00000-0 -80414-2 0  9999","EPHEMERIS_TYPE":"0","FILE":"3448591","MEAN_ELEMENT_THEORY":"SGP4"},{"REV_AT_EPOCH":"130","PERIAPSIS":"374.124","COUNTRY_CODE":"US","OBJECT_TYPE":"PAYLOAD","ELEMENT_SET_NO":"999","BSTAR":"-0.00804510000000","CLASSIFICATION_TYPE":"U","REF_FRAME":"TEME","OBJECT_ID":"2022-041U","RCS_SIZE":"LARGE","OBJECT_NAME":"STARLINK-3686","RA_OF_ASC_NODE":"251.8089","TLE_LINE2":"2 52279  53.2173 251.8089 0002090  28.8988 131.2873 15.64202458  1301","SITE":"AFETR","GP_ID":"203700931","LAUNCH_DATE":"2022-04-21","INCLINATION":"53.2173","NORAD_CAT_ID":"52279","CENTER_NAME":"EARTH","MEAN_ANOMALY":"131.2873","DECAY_DATE":null,"MEAN_MOTION_DOT":"-0.00715495","EPOCH":"2022-05-16T14:00:01.000224","TIME_SYSTEM":"UTC","MEAN_MOTION_DDOT":"0.0000000000000","ARG_OF_PERICENTER":"28.8988","MEAN_MOTION":"15.64202458","PERIOD":"92.060","ECCENTRICITY":"0.00020900","SEMIMAJOR_AXIS":"6753.670","TLE_LINE1":"1 52279U 22041U   22136.58334491 -.00715495  00000-0 -80451-2 0  9998","APOAPSIS":"376.947","FILE":"3448591","EPHEMERIS_TYPE":"0","MEAN_ELEMENT_THEORY":"SGP4"},{"MEAN_MOTION_DDOT":"0.0000000000000","ARG_OF_PERICENTER":"27.4198","EPOCH":"2022-05-16T14:00:01.000224","TIME_SYSTEM":"UTC","MEAN_MOTION_DOT":"-0.00715477","SEMIMAJOR_AXIS":"6753.578","PERIOD":"92.058","ECCENTRICITY":"0.00021440","MEAN_MOTION":"15.64234665","MEAN_ELEMENT_THEORY":"SGP4","FILE":"3448591","EPHEMERIS_TYPE":"0","APOAPSIS":"376.891","TLE_LINE1":"1 52280U 22041V   22136.58334491 -.00715477  00000-0 -80344-2 0  9991","CLASSIFICATION_TYPE":"U","BSTAR":"-0.00803440000000","ELEMENT_SET_NO":"999","COUNTRY_CODE":"US","OBJECT_TYPE":"PAYLOAD","PERIAPSIS":"373.995","REV_AT_EPOCH":"130","SITE":"AFETR","TLE_LINE2":"2 52280  53.2173 251.8291 0002144  27.4198 137.6037 15.64234665  1303","RA_OF_ASC_NODE":"251.8291","OBJECT_NAME":"STARLINK-3764","RCS_SIZE":"LARGE","REF_FRAME":"TEME","OBJECT_ID":"2022-041V","CENTER_NAME":"EARTH","NORAD_CAT_ID":"52280","GP_ID":"203701181","INCLINATION":"53.2173","LAUNCH_DATE":"2022-04-21","DECAY_DATE":null,"MEAN_ANOMALY":"137.6037"},{"MEAN_MOTION_DDOT":"0.0000000000000","ARG_OF_PERICENTER":"23.0102","EPOCH":"2022-05-16T14:00:01.000224","TIME_SYSTEM":"UTC","MEAN_MOTION_DOT":"-0.00715831","SEMIMAJOR_AXIS":"6753.644","PERIOD":"92.059","ECCENTRICITY":"0.00023470","MEAN_MOTION":"15.64211777","FILE":"3448591","EPHEMERIS_TYPE":"0","MEAN_ELEMENT_THEORY":"SGP4","APOAPSIS":"377.094","TLE_LINE1":"1 52281U 22041W   22136.58334491 -.00715831  00000-0 -80455-2 0  9999","CLASSIFICATION_TYPE":"U","ELEMENT_SET_NO":"999","BSTAR":"-0.00804550000000","COUNTRY_CODE":"US","OBJECT_TYPE":"PAYLOAD","PERIAPSIS":"373.924","REV_AT_EPOCH":"130","SITE":"AFETR","TLE_LINE2":"2 52281  53.2173 251.8118 0002347  23.0102 138.5583 15.64211777  1309","RA_OF_ASC_NODE":"251.8118","OBJECT_NAME":"STARLINK-3779","RCS_SIZE":"LARGE","REF_FRAME":"TEME","OBJECT_ID":"2022-041W","CENTER_NAME":"EARTH","NORAD_CAT_ID":"52281","GP_ID":"203701395","INCLINATION":"53.2173","LAUNCH_DATE":"2022-04-21","DECAY_DATE":null,"MEAN_ANOMALY":"138.5583"},{"DECAY_DATE":null,"MEAN_ANOMALY":"222.2595","NORAD_CAT_ID":"52282","GP_ID":"203706305","INCLINATION":"53.2144","LAUNCH_DATE":"2022-04-21","CENTER_NAME":"EARTH","OBJECT_NAME":"STARLINK-3783","RCS_SIZE":"LARGE","OBJECT_ID":"2022-041X","REF_FRAME":"TEME","SITE":"AFETR","TLE_LINE2":"2 52282  53.2144 250.3514 0002683  15.8199 222.2595 15.73188988  5192","RA_OF_ASC_NODE":"250.3514","COUNTRY_CODE":"US","PERIAPSIS":"347.986","OBJECT_TYPE":"PAYLOAD","REV_AT_EPOCH":"519","CLASSIFICATION_TYPE":"U","ELEMENT_SET_NO":"999","BSTAR":"-0.00035796000000","APOAPSIS":"351.597","TLE_LINE1":"1 52282U 22041X   22136.83334491 -.00050545  00000-0 -35796-3 0  9991","EPHEMERIS_TYPE":"0","FILE":"3448838","MEAN_ELEMENT_THEORY":"SGP4","SEMIMAJOR_AXIS":"6727.927","ECCENTRICITY":"0.00026830","PERIOD":"91.534","MEAN_MOTION":"15.73188988","TIME_SYSTEM":"UTC","EPOCH":"2022-05-16T20:00:01.000224","MEAN_MOTION_DOT":"-0.00050545","MEAN_MOTION_DDOT":"0.0000000000000","ARG_OF_PERICENTER":"15.8199"},{"RA_OF_ASC_NODE":"251.8207","SITE":"AFETR","TLE_LINE2":"2 52283  53.2173 251.8207 0002237  24.7432 138.8985 15.64225367  1301","OBJECT_ID":"2022-041Y","REF_FRAME":"TEME","RCS_SIZE":"LARGE","OBJECT_NAME":"STARLINK-3789","ELEMENT_SET_NO":"999","BSTAR":"-0.00803750000000","CLASSIFICATION_TYPE":"U","REV_AT_EPOCH":"130","PERIAPSIS":"373.959","COUNTRY_CODE":"US","OBJECT_TYPE":"PAYLOAD","MEAN_ANOMALY":"138.8985","DECAY_DATE":null,"CENTER_NAME":"EARTH","GP_ID":"203701276","LAUNCH_DATE":"2022-04-21","INCLINATION":"53.2173","NORAD_CAT_ID":"52283","MEAN_MOTION":"15.64225367","PERIOD":"92.058","ECCENTRICITY":"0.00022370","SEMIMAJOR_AXIS":"6753.605","MEAN_MOTION_DDOT":"0.0000000000000","ARG_OF_PERICENTER":"24.7432","MEAN_MOTION_DOT":"-0.00715508","EPOCH":"2022-05-16T14:00:01.000224","TIME_SYSTEM":"UTC","EPHEMERIS_TYPE":"0","FILE":"3448591","MEAN_ELEMENT_THEORY":"SGP4","TLE_LINE1":"1 52283U 22041Y   22136.58334491 -.00715508  00000-0 -80375-2 0  9993","APOAPSIS":"376.980"}];
